start=new Date('2023-03-26T00:00:00.000Z').valueOf();
sats=[{"MEAN_MOTION_DOT":"0.00020819","OBJECT_TYPE":"PAYLOAD","PERIOD":"95.588","ECCENTRICITY":"0.00013400","APOAPSIS":"547.944","REF_FRAME":"TEME","GP_ID":"228835881","TLE_LINE1":"1 46121U 20057E   23084.44181321  .00020819  00000-0  14100-2 0  9997","RA_OF_ASC_NODE":"106.0360","INCLINATION":"53.0516","LAUNCH_DATE":"2020-08-18","TLE_LINE2":"2 46121  53.0516 106.0360 0001340  79.8597 280.2543 15.06464612144182","MEAN_MOTION_DDOT":"0.0000000000000","DECAY_DATE":null,"EPOCH":"2023-03-25T10:36:12.661344","ARG_OF_PERICENTER":"79.8597","ELEMENT_SET_NO":"999","OBJECT_ID":"2020-057E","COUNTRY_CODE":"US","SEMIMAJOR_AXIS":"6925.151","NORAD_CAT_ID":"46121","EPHEMERIS_TYPE":"0","OBJECT_NAME":"STARLINK-1602","MEAN_ANOMALY":"280.2543","TIME_SYSTEM":"UTC","MEAN_ELEMENT_THEORY":"SGP4","BSTAR":"0.00141000000000","SITE":"AFETR","REV_AT_EPOCH":"14418","CENTER_NAME":"EARTH","RCS_SIZE":"LARGE","FILE":"3870526","PERIAPSIS":"546.088","CLASSIFICATION_TYPE":"U","MEAN_MOTION":"15.06464612"},{"BSTAR":"-0.00040208000000","TIME_SYSTEM":"UTC","MEAN_ELEMENT_THEORY":"SGP4","SITE":"AFETR","REV_AT_EPOCH":"14510","CENTER_NAME":"EARTH","CLASSIFICATION_TYPE":"U","MEAN_MOTION":"15.06416421","PERIAPSIS":"545.839","FILE":"3871104","RCS_SIZE":"LARGE","COUNTRY_CODE":"US","NORAD_CAT_ID":"46122","SEMIMAJOR_AXIS":"6925.298","MEAN_ANOMALY":"274.1468","OBJECT_NAME":"STARLINK-1604","EPHEMERIS_TYPE":"0","TLE_LINE2":"2 46122  53.0547  84.8088 0001912  85.9740 274.1468 15.06416421145106","LAUNCH_DATE":"2020-08-18","MEAN_MOTION_DDOT":"0.0000000000000","ARG_OF_PERICENTER":"85.9740","EPOCH":"2023-03-25T17:11:39.278976","DECAY_DATE":null,"OBJECT_ID":"2020-057F","ELEMENT_SET_NO":"999","OBJECT_TYPE":"PAYLOAD","MEAN_MOTION_DOT":"-0.00006268","APOAPSIS":"548.487","ECCENTRICITY":"0.00019120","PERIOD":"95.591","REF_FRAME":"TEME","INCLINATION":"53.0547","RA_OF_ASC_NODE":"84.8088","TLE_LINE1":"1 46122U 20057F   23084.71642684 -.00006268  00000-0 -40208-3 0  9995","GP_ID":"228868378"},{"OBJECT_TYPE":"PAYLOAD","MEAN_MOTION_DOT":"0.00012965","PERIOD":"95.590","ECCENTRICITY":"0.00015250","APOAPSIS":"548.154","REF_FRAME":"TEME","GP_ID":"228869129","TLE_LINE1":"1 46123U 20057G   23084.70167118  .00012965  00000-0  88678-3 0  9991","INCLINATION":"53.0538","RA_OF_ASC_NODE":"84.8705","LAUNCH_DATE":"2020-08-18","TLE_LINE2":"2 46123  53.0538  84.8705 0001525  67.9901 292.1250 15.06437796145121","MEAN_MOTION_DDOT":"0.0000000000000","DECAY_DATE":null,"ARG_OF_PERICENTER":"67.9901","EPOCH":"2023-03-25T16:50:24.389952","ELEMENT_SET_NO":"999","OBJECT_ID":"2020-057G","COUNTRY_CODE":"US","SEMIMAJOR_AXIS":"6925.233","NORAD_CAT_ID":"46123","EPHEMERIS_TYPE":"0","OBJECT_NAME":"STARLINK-1605","MEAN_ANOMALY":"292.1250","TIME_SYSTEM":"UTC","MEAN_ELEMENT_THEORY":"SGP4","BSTAR":"0.00088678000000","REV_AT_EPOCH":"14512","SITE":"AFETR","CENTER_NAME":"EARTH","RCS_SIZE":"LARGE","FILE":"3871104","PERIAPSIS":"546.042","MEAN_MOTION":"15.06437796","CLASSIFICATION_TYPE":"U"},{"ELEMENT_SET_NO":"999","OBJECT_ID":"2020-057H","DECAY_DATE":null,"ARG_OF_PERICENTER":"96.9358","EPOCH":"2023-03-25T17:01:01.725600","MEAN_MOTION_DDOT":"0.0000000000000","LAUNCH_DATE":"2020-08-18","TLE_LINE2":"2 46124  53.0539  84.8400 0001186  96.9358 263.1766 15.06418623143852","GP_ID":"228867878","RA_OF_ASC_NODE":"84.8400","INCLINATION":"53.0539","TLE_LINE1":"1 46124U 20057H   23084.70904775 -.00005608  00000-0 -35771-3 0  9994","REF_FRAME":"TEME","ECCENTRICITY":"0.00011860","PERIOD":"95.591","APOAPSIS":"547.978","OBJECT_TYPE":"PAYLOAD","MEAN_MOTION_DOT":"-0.00005608","PERIAPSIS":"546.335","FILE":"3871104","RCS_SIZE":"LARGE","MEAN_MOTION":"15.06418623","CLASSIFICATION_TYPE":"U","CENTER_NAME":"EARTH","REV_AT_EPOCH":"14385","SITE":"AFETR","TIME_SYSTEM":"UTC","MEAN_ELEMENT_THEORY":"SGP4","BSTAR":"-0.00035771000000","EPHEMERIS_TYPE":"0","MEAN_ANOMALY":"263.1766","OBJECT_NAME":"STARLINK-1614","NORAD_CAT_ID":"46124","SEMIMAJOR_AXIS":"6925.291","COUNTRY_CODE":"US"},{"DECAY_DATE":null,"EPOCH":"2023-03-25T19:45:38.438784","ARG_OF_PERICENTER":"87.3472","ELEMENT_SET_NO":"999","OBJECT_ID":"2020-057J","LAUNCH_DATE":"2020-08-18","TLE_LINE2":"2 46125  53.0527 124.3229 0001110  87.3472 272.7644 15.06384859143963","MEAN_MOTION_DDOT":"0.0000000000000","REF_FRAME":"TEME","GP_ID":"228842434","TLE_LINE1":"1 46125U 20057J   23084.82336156  .00021567  00000-0  14629-2 0  9998","RA_OF_ASC_NODE":"124.3229","INCLINATION":"53.0527","MEAN_MOTION_DOT":"0.00021567","OBJECT_TYPE":"PAYLOAD","ECCENTRICITY":"0.00011100","PERIOD":"95.593","APOAPSIS":"548.029","CENTER_NAME":"EARTH","RCS_SIZE":"LARGE","FILE":"3870828","PERIAPSIS":"546.491","MEAN_MOTION":"15.06384859","CLASSIFICATION_TYPE":"U","TIME_SYSTEM":"UTC","MEAN_ELEMENT_THEORY":"SGP4","BSTAR":"0.00146290000000","REV_AT_EPOCH":"14396","SITE":"AFETR","EPHEMERIS_TYPE":"0","OBJECT_NAME":"STARLINK-1618","MEAN_ANOMALY":"272.7644","COUNTRY_CODE":"US","SEMIMAJOR_AXIS":"6925.395","NORAD_CAT_ID":"46125"},{"MEAN_MOTION":"15.06428972","CLASSIFICATION_TYPE":"U","RCS_SIZE":"LARGE","FILE":"3870828","PERIAPSIS":"545.758","CENTER_NAME":"EARTH","REV_AT_EPOCH":"14396","SITE":"AFETR","BSTAR":"-0.00088970000000","TIME_SYSTEM":"UTC","MEAN_ELEMENT_THEORY":"SGP4","OBJECT_NAME":"STARLINK-1619","MEAN_ANOMALY":"270.4335","EPHEMERIS_TYPE":"0","SEMIMAJOR_AXIS":"6925.260","NORAD_CAT_ID":"46126","COUNTRY_CODE":"US","OBJECT_ID":"2020-057K","ELEMENT_SET_NO":"999","EPOCH":"2023-03-25T19:08:23.491104","ARG_OF_PERICENTER":"89.6880","DECAY_DATE":null,"MEAN_MOTION_DDOT":"0.0000000000000","TLE_LINE2":"2 46126  53.0533 124.4438 0001974  89.6880 270.4335 15.06428972143967","LAUNCH_DATE":"2020-08-18","TLE_LINE1":"1 46126U 20057K   23084.79749411 -.00013520  00000-0 -88970-3 0  9990","INCLINATION":"53.0533","RA_OF_ASC_NODE":"124.4438","GP_ID":"228842157","REF_FRAME":"TEME","APOAPSIS":"548.492","PERIOD":"95.590","ECCENTRICITY":"0.00019740","OBJECT_TYPE":"PAYLOAD","MEAN_MOTION_DOT":"-0.00013520"},{"GP_ID":"228868629","TLE_LINE1":"1 46127U 20057L   23084.78829497  .00003866  00000-0  27816-3 0  9995","INCLINATION":"53.0537","RA_OF_ASC_NODE":"104.4850","REF_FRAME":"TEME","PERIOD":"95.591","ECCENTRICITY":"0.00026700","APOAPSIS":"549.008","OBJECT_TYPE":"PAYLOAD","MEAN_MOTION_DOT":"0.00003866","ELEMENT_SET_NO":"999","OBJECT_ID":"2020-057L","DECAY_DATE":null,"EPOCH":"2023-03-25T18:55:08.685408","ARG_OF_PERICENTER":"75.6839","MEAN_MOTION_DDOT":"0.0000000000000","LAUNCH_DATE":"2020-08-18","TLE_LINE2":"2 46127  53.0537 104.4850 0002670  75.6839 284.4447 15.06417811143577","EPHEMERIS_TYPE":"0","OBJECT_NAME":"STARLINK-1621","MEAN_ANOMALY":"284.4447","SEMIMAJOR_AXIS":"6925.294","NORAD_CAT_ID":"46127","COUNTRY_CODE":"US","FILE":"3871104","RCS_SIZE":"LARGE","PERIAPSIS":"545.310","MEAN_MOTION":"15.06417811","CLASSIFICATION_TYPE":"U","CENTER_NAME":"EARTH","REV_AT_EPOCH":"14357","SITE":"AFETR","MEAN_ELEMENT_THEORY":"SGP4","TIME_SYSTEM":"UTC","BSTAR":"0.00027816000000"},{"PERIAPSIS":"545.930","FILE":"3871104","RCS_SIZE":"LARGE","CLASSIFICATION_TYPE":"U","MEAN_MOTION":"15.06470623","CENTER_NAME":"EARTH","REV_AT_EPOCH":"14380","SITE":"AFETR","MEAN_ELEMENT_THEORY":"SGP4","TIME_SYSTEM":"UTC","BSTAR":"0.00170080000000","EPHEMERIS_TYPE":"0","MEAN_ANOMALY":"278.3499","OBJECT_NAME":"STARLINK-1622","NORAD_CAT_ID":"46128","SEMIMAJOR_AXIS":"6925.132","COUNTRY_CODE":"US","ELEMENT_SET_NO":"999","OBJECT_ID":"2020-057M","DECAY_DATE":null,"ARG_OF_PERICENTER":"81.7665","EPOCH":"2023-03-25T10:01:43.209408","MEAN_MOTION_DDOT":"0.0000000000000","LAUNCH_DATE":"2020-08-18","TLE_LINE2":"2 46128  53.0536  86.1446 0001541  81.7665 278.3499 15.06470623143800","GP_ID":"228867379","INCLINATION":"53.0536","RA_OF_ASC_NODE":"86.1446","TLE_LINE1":"1 46128U 20057M   23084.41786122  .00025191  00000-0  17008-2 0  9999","REF_FRAME":"TEME","PERIOD":"95.588","ECCENTRICITY":"0.00015410","APOAPSIS":"548.064","OBJECT_TYPE":"PAYLOAD","MEAN_MOTION_DOT":"0.00025191"},{"CENTER_NAME":"EARTH","PERIAPSIS":"545.970","FILE":"3871104","RCS_SIZE":"LARGE","CLASSIFICATION_TYPE":"U","MEAN_MOTION":"15.06409295","TIME_SYSTEM":"UTC","MEAN_ELEMENT_THEORY":"SGP4","BSTAR":"0.00083568000000","REV_AT_EPOCH":"14385","SITE":"AFETR","EPHEMERIS_TYPE":"0","MEAN_ANOMALY":"274.2732","OBJECT_NAME":"STARLINK-1623","COUNTRY_CODE":"US","SEMIMAJOR_AXIS":"6925.320","NORAD_CAT_ID":"46129","DECAY_DATE":null,"EPOCH":"2023-03-25T17:22:16.695840","ARG_OF_PERICENTER":"85.8458","ELEMENT_SET_NO":"999","OBJECT_ID":"2020-057N","LAUNCH_DATE":"2020-08-18","TLE_LINE2":"2 46129  53.0541  84.7738 0001755  85.8458 274.2732 15.06409295143854","MEAN_MOTION_DDOT":"0.0000000000000","REF_FRAME":"TEME","GP_ID":"228867628","RA_OF_ASC_NODE":"84.7738","INCLINATION":"53.0541","TLE_LINE1":"1 46129U 20057N   23084.72380435  .00012191  00000-0  83568-3 0  9992","MEAN_MOTION_DOT":"0.00012191","OBJECT_TYPE":"PAYLOAD","ECCENTRICITY":"0.00017550","PERIOD":"95.592","APOAPSIS":"548.400"},{"FILE":"3871104","RCS_SIZE":"LARGE","PERIAPSIS":"546.402","CLASSIFICATION_TYPE":"U","MEAN_MOTION":"15.06401004","CENTER_NAME":"EARTH","SITE":"AFETR","REV_AT_EPOCH":"14509","MEAN_ELEMENT_THEORY":"SGP4","TIME_SYSTEM":"UTC","BSTAR":"-0.00193420000000","EPHEMERIS_TYPE":"0","OBJECT_NAME":"STARLINK-1624","MEAN_ANOMALY":"184.2175","NORAD_CAT_ID":"46130","SEMIMAJOR_AXIS":"6925.345","COUNTRY_CODE":"US","ELEMENT_SET_NO":"999","OBJECT_ID":"2020-057P","DECAY_DATE":null,"EPOCH":"2023-03-25T16:34:29.760672","ARG_OF_PERICENTER":"175.8824","MEAN_MOTION_DDOT":"0.0000000000000","LAUNCH_DATE":"2020-08-18","TLE_LINE2":"2 46130  53.0549  84.9241 0001167 175.8824 184.2175 15.06401004145098","GP_ID":"228868379","TLE_LINE1":"1 46130U 20057P   23084.69062223 -.00028975  00000-0 -19342-2 0  9999","INCLINATION":"53.0549","RA_OF_ASC_NODE":"84.9241","REF_FRAME":"TEME","PERIOD":"95.592","ECCENTRICITY":"0.00011670","APOAPSIS":"548.019","OBJECT_TYPE":"PAYLOAD","MEAN_MOTION_DOT":"-0.00028975"}];
